{
  "type": "FeatureCollection",
  "features": [
    {
      "type": "Feature",
      "properties": {
        "norad_id": 50032,
        "name": "COSMOS 1408 DEB",
        "group": "cosmos-1408-debris",
        "lat": -58.00850219021172,
        "lon": 35.59076032770219,
        "alt_km": 443.5833555771542,
        "timestamp": "2025-12-23T07:45:09.674910+00:00",
        "meta_object_name": "COSMOS 1408 DEB",
        "meta_object_id": "1982-092RU",
        "meta_epoch": "2025-12-22T21:07:55.498080",
        "meta_mean_motion": 15.45790756,
        "meta_eccentricity": 0.00162798,
        "meta_inclination": 82.5631,
        "meta_ra_of_asc_node": 48.1148,
        "meta_arg_of_pericenter": 170.9741,
        "meta_mean_anomaly": 189.1804,
        "meta_ephemeris_type": 0,
        "meta_classification_type": "U",
        "meta_norad_cat_id": 50032,
        "meta_element_set_no": 999,
        "meta_rev_at_epoch": 22760,
        "meta_bstar": 0.00011002137,
        "meta_mean_motion_dot": 5.394e-05,
        "meta_mean_motion_ddot": 0,
        "tle_line1": "1 50032U 82092RU  25356.88050345  .00005394  00000+0  11002-3 0  9992",
        "tle_line2": "2 50032  82.5631  48.1148 0016279 170.9741 189.1804 15.45790756227604"
      },
      "geometry": {
        "type": "Point",
        "coordinates": [
          35.59076032770219,
          -58.00850219021172
        ]
      }
    },
    {
      "type": "Feature",
      "properties": {
        "norad_id": 50058,
        "name": "COSMOS 1408 DEB",
        "group": "cosmos-1408-debris",
        "lat": 46.18273605361542,
        "lon": -129.51162131051154,
        "alt_km": 366.46557635387944,
        "timestamp": "2025-12-23T07:45:09.674931+00:00",
        "meta_object_name": "COSMOS 1408 DEB",
        "meta_object_id": "1982-092SW",
        "meta_epoch": "2025-12-22T15:50:16.807200",
        "meta_mean_motion": 15.64676766,
        "meta_eccentricity": 0.00160247,
        "meta_inclination": 82.6119,
        "meta_ra_of_asc_node": 58.9551,
        "meta_arg_of_pericenter": 65.3088,
        "meta_mean_anomaly": 294.9838,
        "meta_ephemeris_type": 0,
        "meta_classification_type": "U",
        "meta_norad_cat_id": 50058,
        "meta_element_set_no": 999,
        "meta_rev_at_epoch": 22959,
        "meta_bstar": 0.00032471532,
        "meta_mean_motion_dot": 0.00031739,
        "meta_mean_motion_ddot": 0,
        "tle_line1": "1 50058U 82092SW  25356.65991675  .00031739  00000+0  32472-3 0  9991",
        "tle_line2": "2 50058  82.6119  58.9551 0016024  65.3088 294.9838 15.64676766229597"
      },
      "geometry": {
        "type": "Point",
        "coordinates": [
          -129.51162131051154,
          46.18273605361542
        ]
      }
    },
    {
      "type": "Feature",
      "properties": {
        "norad_id": 50404,
        "name": "COSMOS 1408 DEB",
        "group": "cosmos-1408-debris",
        "lat": 31.71052961094948,
        "lon": 19.32821200044895,
        "alt_km": 406.0172512137515,
        "timestamp": "2025-12-23T07:45:09.674944+00:00",
        "meta_object_name": "COSMOS 1408 DEB",
        "meta_object_id": "1982-092ADS",
        "meta_epoch": "2025-12-22T15:15:15.881472",
        "meta_mean_motion": 15.15279267,
        "meta_eccentricity": 0.01679121,
        "meta_inclination": 82.2023,
        "meta_ra_of_asc_node": 204.8909,
        "meta_arg_of_pericenter": 164.9252,
        "meta_mean_anomaly": 195.7077,
        "meta_ephemeris_type": 0,
        "meta_classification_type": "U",
        "meta_norad_cat_id": 50404,
        "meta_element_set_no": 999,
        "meta_rev_at_epoch": 21343,
        "meta_bstar": 0.0032150607,
        "meta_mean_motion_dot": 0.00087438,
        "meta_mean_motion_ddot": 0,
        "tle_line1": "1 50404U 82092ADS 25356.63560048  .00087438  00000+0  32151-2 0  9990",
        "tle_line2": "2 50404  82.2023 204.8909 0167912 164.9252 195.7077 15.15279267213433"
      },
      "geometry": {
        "type": "Point",
        "coordinates": [
          19.32821200044895,
          31.71052961094948
        ]
      }
    },
    {
      "type": "Feature",
      "properties": {
        "norad_id": 50621,
        "name": "COSMOS 1408 DEB",
        "group": "cosmos-1408-debris",
        "lat": -44.553077590759614,
        "lon": -109.45822769795497,
        "alt_km": 409.5083336710113,
        "timestamp": "2025-12-23T07:45:09.674955+00:00",
        "meta_object_name": "COSMOS 1408 DEB",
        "meta_object_id": "1982-092ALR",
        "meta_epoch": "2025-12-22T10:44:32.812800",
        "meta_mean_motion": 15.57134426,
        "meta_eccentricity": 0.00290323,
        "meta_inclination": 82.5695,
        "meta_ra_of_asc_node": 64.0714,
        "meta_arg_of_pericenter": 117.4575,
        "meta_mean_anomaly": 242.9638,
        "meta_ephemeris_type": 0,
        "meta_classification_type": "U",
        "meta_norad_cat_id": 50621,
        "meta_element_set_no": 999,
        "meta_rev_at_epoch": 22401,
        "meta_bstar": 0.00037475493,
        "meta_mean_motion_dot": 0.00027795,
        "meta_mean_motion_ddot": 0,
        "tle_line1": "1 50621U 82092ALR 25356.44760200  .00027795  00000+0  37475-3 0  9997",
        "tle_line2": "2 50621  82.5695  64.0714 0029032 117.4575 242.9638 15.57134426224010"
      },
      "geometry": {
        "type": "Point",
        "coordinates": [
          -109.45822769795497,
          -44.553077590759614
        ]
      }
    }
  ]
}